{
  "type": "FeatureCollection",
  "features": [
    {
      "type": "Feature",
      "properties": {
        "norad_id": 32376,
        "name": "COSMO-SKYMED 2",
        "group": "resource",
        "lat": 81.67485444204176,
        "lon": 94.782356034222,
        "alt_km": 613.984722983364,
        "timestamp": "2025-12-10T14:53:36.779257+00:00",
        "meta_object_name": "COSMO-SKYMED 2",
        "meta_object_id": "2007-059A",
        "meta_epoch": "2025-12-10T06:23:59.670240",
        "meta_mean_motion": 14.82161559,
        "meta_eccentricity": 0.00015309,
        "meta_inclination": 97.8812,
        "meta_ra_of_asc_node": 165.6277,
        "meta_arg_of_pericenter": 85.3871,
        "meta_mean_anomaly": 274.7517,
        "meta_ephemeris_type": 0,
        "meta_classification_type": "U",
        "meta_norad_cat_id": 32376,
        "meta_element_set_no": 999,
        "meta_rev_at_epoch": 97401,
        "meta_bstar": 0.00012559809,
        "meta_mean_motion_dot": 9.48e-06,
        "meta_mean_motion_ddot": 0,
        "tle_line1": "1 32376U 07059A   25344.26666285  .00000948  00000+0  12560-3 0  9998",
        "tle_line2": "2 32376  97.8812 165.6277 0001530  85.3871 274.7517 14.82161559974019"
      },
      "geometry": {
        "type": "Point",
        "coordinates": [
          94.782356034222,
          81.67485444204176
        ]
      }
    },
    {
      "type": "Feature",
      "properties": {
        "norad_id": 32382,
        "name": "RADARSAT-2",
        "group": "resource",
        "lat": 71.5745098631163,
        "lon": -37.70521854621619,
        "alt_km": 784.0786523957277,
        "timestamp": "2025-12-10T14:53:36.779267+00:00",
        "meta_object_name": "RADARSAT-2",
        "meta_object_id": "2007-061A",
        "meta_epoch": "2025-12-10T07:49:59.924064",
        "meta_mean_motion": 14.29981443,
        "meta_eccentricity": 0.00011272,
        "meta_inclination": 98.5796,
        "meta_ra_of_asc_node": 348.9512,
        "meta_arg_of_pericenter": 87.3809,
        "meta_mean_anomaly": 272.7502,
        "meta_ephemeris_type": 0,
        "meta_classification_type": "U",
        "meta_norad_cat_id": 32382,
        "meta_element_set_no": 999,
        "meta_rev_at_epoch": 93896,
        "meta_bstar": 0.00010820371,
        "meta_mean_motion_dot": 2.35e-06,
        "meta_mean_motion_ddot": 0,
        "tle_line1": "1 32382U 07061A   25344.32638801  .00000235  00000+0  10820-3 0  9994",
        "tle_line2": "2 32382  98.5796 348.9512 0001127  87.3809 272.7502 14.29981443938967"
      },
      "geometry": {
        "type": "Point",
        "coordinates": [
          -37.70521854621619,
          71.5745098631163
        ]
      }
    },
    {
      "type": "Feature",
      "properties": {
        "norad_id": 32783,
        "name": "CARTOSAT-2A",
        "group": "resource",
        "lat": -70.02472045480526,
        "lon": -167.62336250508454,
        "alt_km": 644.1984600745509,
        "timestamp": "2025-12-10T14:53:36.779277+00:00",
        "meta_object_name": "CARTOSAT-2A",
        "meta_object_id": "2008-021A",
        "meta_epoch": "2025-12-10T07:15:50.776992",
        "meta_mean_motion": 14.78929984,
        "meta_eccentricity": 0.00121262,
        "meta_inclination": 97.7928,
        "meta_ra_of_asc_node": 34.2021,
        "meta_arg_of_pericenter": 12.2806,
        "meta_mean_anomaly": 347.8699,
        "meta_ephemeris_type": 0,
        "meta_classification_type": "U",
        "meta_norad_cat_id": 32783,
        "meta_element_set_no": 999,
        "meta_rev_at_epoch": 95088,
        "meta_bstar": 0.00020605878,
        "meta_mean_motion_dot": 1.471e-05,
        "meta_mean_motion_ddot": 0,
        "tle_line1": "1 32783U 08021A   25344.30267103  .00001471  00000+0  20606-3 0  9993",
        "tle_line2": "2 32783  97.7928  34.2021 0012126  12.2806 347.8699 14.78929984950887"
      },
      "geometry": {
        "type": "Point",
        "coordinates": [
          -167.62336250508454,
          -70.02472045480526
        ]
      }
    },
    {
      "type": "Feature",
      "properties": {
        "norad_id": 33320,
        "name": "HUANJING 1A (HJ-1A)",
        "group": "resource",
        "lat": 79.80003862889002,
        "lon": -75.36199567528904,
        "alt_km": 600.7210395536349,
        "timestamp": "2025-12-10T14:53:36.779287+00:00",
        "meta_object_name": "HUANJING 1A (HJ-1A)",
        "meta_object_id": "2008-041A",
        "meta_epoch": "2025-12-10T06:25:35.447232",
        "meta_mean_motion": 14.83383307,
        "meta_eccentricity": 0.00203597,
        "meta_inclination": 97.6544,
        "meta_ra_of_asc_node": 332.6693,
        "meta_arg_of_pericenter": 42.1863,
        "meta_mean_anomaly": 318.0914,
        "meta_ephemeris_type": 0,
        "meta_classification_type": "U",
        "meta_norad_cat_id": 33320,
        "meta_element_set_no": 999,
        "meta_rev_at_epoch": 93039,
        "meta_bstar": 0.00038977285,
        "meta_mean_motion_dot": 3.157e-05,
        "meta_mean_motion_ddot": 0,
        "tle_line1": "1 33320U 08041A   25344.26777138  .00003157  00000+0  38977-3 0  9995",
        "tle_line2": "2 33320  97.6544 332.6693 0020359  42.1863 318.0914 14.83383307930393"
      },
      "geometry": {
        "type": "Point",
        "coordinates": [
          -75.36199567528904,
          79.80003862889002
        ]
      }
    },
    {
      "type": "Feature",
      "properties": {
        "norad_id": 33321,
        "name": "HUANJING 1B (HJ-1B)",
        "group": "resource",
        "lat": -51.18158065094259,
        "lon": -13.686031007135123,
        "alt_km": 645.9865746988153,
        "timestamp": "2025-12-10T14:53:36.779297+00:00",
        "meta_object_name": "HUANJING 1B (HJ-1B)",
        "meta_object_id": "2008-041B",
        "meta_epoch": "2025-12-10T07:01:46.965216",
        "meta_mean_motion": 14.82812638,
        "meta_eccentricity": 0.00382897,
        "meta_inclination": 97.64,
        "meta_ra_of_asc_node": 336.3968,
        "meta_arg_of_pericenter": 83.3568,
        "meta_mean_anomaly": 277.2002,
        "meta_ephemeris_type": 0,
        "meta_classification_type": "U",
        "meta_norad_cat_id": 33321,
        "meta_element_set_no": 999,
        "meta_rev_at_epoch": 93041,
        "meta_bstar": 0.00028899851,
        "meta_mean_motion_dot": 2.316e-05,
        "meta_mean_motion_ddot": 0,
        "tle_line1": "1 33321U 08041B   25344.29290469  .00002316  00000+0  28900-3 0  9997",
        "tle_line2": "2 33321  97.6400 336.3968 0038289  83.3568 277.2002 14.82812638930411"
      },
      "geometry": {
        "type": "Point",
        "coordinates": [
          -13.686031007135123,
          -51.18158065094259
        ]
      }
    },
    {
      "type": "Feature",
      "properties": {
        "norad_id": 33331,
        "name": "GEOEYE 1",
        "group": "resource",
        "lat": 70.16176154928567,
        "lon": 32.59890604194291,
        "alt_km": 672.4917378835098,
        "timestamp": "2025-12-10T14:53:36.779307+00:00",
        "meta_object_name": "GEOEYE 1",
        "meta_object_id": "2008-042A",
        "meta_epoch": "2025-12-10T06:22:10.649856",
        "meta_mean_motion": 14.64807512,
        "meta_eccentricity": 0.00027573,
        "meta_inclination": 98.1255,
        "meta_ra_of_asc_node": 55.577,
        "meta_arg_of_pericenter": 287.5968,
        "meta_mean_anomaly": 72.4934,
        "meta_ephemeris_type": 0,
        "meta_classification_type": "U",
        "meta_norad_cat_id": 33331,
        "meta_element_set_no": 999,
        "meta_rev_at_epoch": 92249,
        "meta_bstar": 0.00020206297,
        "meta_mean_motion_dot": 1.03e-05,
        "meta_mean_motion_ddot": 0,
        "tle_line1": "1 33331U 08042A   25344.26540104  .00001030  00000+0  20206-3 0  9993",
        "tle_line2": "2 33331  98.1255  55.5770 0002757 287.5968  72.4934 14.64807512922493"
      },
      "geometry": {
        "type": "Point",
        "coordinates": [
          32.59890604194291,
          70.16176154928567
        ]
      }
    },
    {
      "type": "Feature",
      "properties": {
        "norad_id": 33396,
        "name": "THEOS",
        "group": "resource",
        "lat": -81.3745659458194,
        "lon": 137.8577039330949,
        "alt_km": 833.1640852791234,
        "timestamp": "2025-12-10T14:53:36.779317+00:00",
        "meta_object_name": "THEOS",
        "meta_object_id": "2008-049A",
        "meta_epoch": "2025-12-10T06:51:56.130048",
        "meta_mean_motion": 14.20096838,
        "meta_eccentricity": 0.00011234,
        "meta_inclination": 98.5866,
        "meta_ra_of_asc_node": 42.4477,
        "meta_arg_of_pericenter": 96.0218,
        "meta_mean_anomaly": 264.1087,
        "meta_ephemeris_type": 0,
        "meta_classification_type": "U",
        "meta_norad_cat_id": 33396,
        "meta_element_set_no": 999,
        "meta_rev_at_epoch": 89115,
        "meta_bstar": 0.00023119386,
        "meta_mean_motion_dot": 4.5e-06,
        "meta_mean_motion_ddot": 0,
        "tle_line1": "1 33396U 08049A   25344.28606632  .00000450  00000+0  23119-3 0  9993",
        "tle_line2": "2 33396  98.5866  42.4477 0001123  96.0218 264.1087 14.20096838891152"
      },
      "geometry": {
        "type": "Point",
        "coordinates": [
          137.8577039330949,
          -81.3745659458194
        ]
      }
    }
  ]
}